start=new Date('2022-08-15T00:00:00.000Z').valueOf();
sats=[{"MEAN_ELEMENT_THEORY":"SGP4","TLE_LINE2":"2 51898  53.2180  87.4864 0001661  68.9677 294.9610 15.08826971  1308","MEAN_MOTION_DOT":"-0.00003445","OBJECT_NAME":"STARLINK-3597","PERIAPSIS":"538.636","CLASSIFICATION_TYPE":"U","FILE":"3536615","RA_OF_ASC_NODE":"87.4864","ARG_OF_PERICENTER":"68.9677","RCS_SIZE":"LARGE","LAUNCH_DATE":"2022-03-03","TIME_SYSTEM":"UTC","DECAY_DATE":null,"MEAN_MOTION":"15.08826971","EPHEMERIS_TYPE":"0","OBJECT_TYPE":"PAYLOAD","SITE":"AFETR","COUNTRY_CODE":"US","ECCENTRICITY":"0.00016610","GP_ID":"210232981","APOAPSIS":"540.934","REV_AT_EPOCH":"130","MEAN_ANOMALY":"294.9610","EPOCH":"2022-08-14T22:00:00.999936","TLE_LINE1":"1 51898U 22022AY  22226.91667824 -.00003445  00000-0 -19852-3 0  9992","REF_FRAME":"TEME","PERIOD":"95.438","OBJECT_ID":"2022-022AY","NORAD_CAT_ID":"51898","CENTER_NAME":"EARTH","INCLINATION":"53.2180","ELEMENT_SET_NO":"999","SEMIMAJOR_AXIS":"6917.920","BSTAR":"-0.00019852000000","MEAN_MOTION_DDOT":"0.0000000000000"},{"REF_FRAME":"TEME","PERIOD":"95.437","OBJECT_ID":"2022-025A","TLE_LINE1":"1 51956U 22025A   22227.00001157 -.00041784  00000-0 -26218-2 0  9993","REV_AT_EPOCH":"2562","APOAPSIS":"541.162","MEAN_ANOMALY":"281.2487","EPOCH":"2022-08-15T00:00:00.999648","COUNTRY_CODE":"US","ECCENTRICITY":"0.00020860","GP_ID":"210210131","MEAN_MOTION_DDOT":"0.0000000000000","BSTAR":"-0.00262180000000","INCLINATION":"53.2154","CENTER_NAME":"EARTH","ELEMENT_SET_NO":"999","SEMIMAJOR_AXIS":"6917.854","NORAD_CAT_ID":"51956","TIME_SYSTEM":"UTC","CLASSIFICATION_TYPE":"U","RA_OF_ASC_NODE":"117.1257","FILE":"3536605","ARG_OF_PERICENTER":"50.5363","LAUNCH_DATE":"2022-03-09","RCS_SIZE":"LARGE","MEAN_ELEMENT_THEORY":"SGP4","TLE_LINE2":"2 51956  53.2154 117.1257 0002086  50.5363 281.2487 15.08848753 25626","OBJECT_NAME":"STARLINK-3700","MEAN_MOTION_DOT":"-0.00041784","PERIAPSIS":"538.276","SITE":"AFETR","OBJECT_TYPE":"PAYLOAD","MEAN_MOTION":"15.08848753","DECAY_DATE":null,"EPHEMERIS_TYPE":"0"},{"TLE_LINE1":"1 51957U 22025B   22227.00001157 -.00001955  00000-0 -10479-3 0  9993","REF_FRAME":"TEME","OBJECT_ID":"2022-025B","PERIOD":"95.438","ECCENTRICITY":"0.00019020","COUNTRY_CODE":"US","GP_ID":"210210153","REV_AT_EPOCH":"2564","APOAPSIS":"541.068","EPOCH":"2022-08-15T00:00:00.999648","MEAN_ANOMALY":"12.5639","BSTAR":"-0.00010479000000","MEAN_MOTION_DDOT":"0.0000000000000","NORAD_CAT_ID":"51957","INCLINATION":"53.2164","CENTER_NAME":"EARTH","SEMIMAJOR_AXIS":"6917.887","ELEMENT_SET_NO":"999","FILE":"3536606","RA_OF_ASC_NODE":"117.1186","ARG_OF_PERICENTER":"59.2143","CLASSIFICATION_TYPE":"U","LAUNCH_DATE":"2022-03-09","RCS_SIZE":"LARGE","TIME_SYSTEM":"UTC","OBJECT_NAME":"STARLINK-3694","MEAN_MOTION_DOT":"-0.00001955","TLE_LINE2":"2 51957  53.2164 117.1186 0001902  59.2143  12.5639 15.08837696 25647","MEAN_ELEMENT_THEORY":"SGP4","PERIAPSIS":"538.437","OBJECT_TYPE":"PAYLOAD","SITE":"AFETR","EPHEMERIS_TYPE":"0","DECAY_DATE":null,"MEAN_MOTION":"15.08837696"},{"OBJECT_TYPE":"PAYLOAD","SITE":"AFETR","EPHEMERIS_TYPE":"0","MEAN_MOTION":"15.08838107","DECAY_DATE":null,"TIME_SYSTEM":"UTC","RCS_SIZE":"LARGE","LAUNCH_DATE":"2022-03-09","FILE":"3536615","RA_OF_ASC_NODE":"117.5078","ARG_OF_PERICENTER":"56.6772","CLASSIFICATION_TYPE":"U","PERIAPSIS":"538.228","MEAN_MOTION_DOT":"-0.00013659","OBJECT_NAME":"STARLINK-3692","TLE_LINE2":"2 51958  53.2167 117.5078 0002202  56.6772 202.1382 15.08838107  1305","MEAN_ELEMENT_THEORY":"SGP4","MEAN_MOTION_DDOT":"0.0000000000000","BSTAR":"-0.00084173000000","SEMIMAJOR_AXIS":"6917.886","ELEMENT_SET_NO":"999","CENTER_NAME":"EARTH","INCLINATION":"53.2167","NORAD_CAT_ID":"51958","OBJECT_ID":"2022-025C","PERIOD":"95.438","REF_FRAME":"TEME","TLE_LINE1":"1 51958U 22025C   22226.91667824 -.00013659  00000-0 -84173-3 0  9998","EPOCH":"2022-08-14T22:00:00.999936","MEAN_ANOMALY":"202.1382","REV_AT_EPOCH":"130","APOAPSIS":"541.274","GP_ID":"210233234","ECCENTRICITY":"0.00022020","COUNTRY_CODE":"US"},{"DECAY_DATE":null,"MEAN_MOTION":"15.08839482","EPHEMERIS_TYPE":"0","SITE":"AFETR","OBJECT_TYPE":"PAYLOAD","PERIAPSIS":"538.127","TLE_LINE2":"2 51959  53.2154 117.1201 0002342  58.6443 353.0396 15.08839482 25627","MEAN_ELEMENT_THEORY":"SGP4","OBJECT_NAME":"STARLINK-3704","MEAN_MOTION_DOT":"-0.00002604","LAUNCH_DATE":"2022-03-09","RCS_SIZE":"LARGE","CLASSIFICATION_TYPE":"U","FILE":"3536606","RA_OF_ASC_NODE":"117.1201","ARG_OF_PERICENTER":"58.6443","TIME_SYSTEM":"UTC","NORAD_CAT_ID":"51959","ELEMENT_SET_NO":"999","SEMIMAJOR_AXIS":"6917.882","INCLINATION":"53.2154","CENTER_NAME":"EARTH","BSTAR":"-0.00014554000000","MEAN_MOTION_DDOT":"0.0000000000000","GP_ID":"210210152","COUNTRY_CODE":"US","ECCENTRICITY":"0.00023420","MEAN_ANOMALY":"353.0396","EPOCH":"2022-08-15T00:00:00.999648","APOAPSIS":"541.367","REV_AT_EPOCH":"2562","TLE_LINE1":"1 51959U 22025D   22227.00001157 -.00002604  00000-0 -14554-3 0  9995","PERIOD":"95.438","OBJECT_ID":"2022-025D","REF_FRAME":"TEME"},{"PERIAPSIS":"538.348","OBJECT_NAME":"STARLINK-3691","MEAN_MOTION_DOT":"-0.00001266","TLE_LINE2":"2 51960  53.2165 117.1147 0002062  53.4205  38.3489 15.08830569 25632","MEAN_ELEMENT_THEORY":"SGP4","TIME_SYSTEM":"UTC","LAUNCH_DATE":"2022-03-09","RCS_SIZE":"LARGE","RA_OF_ASC_NODE":"117.1147","FILE":"3536606","ARG_OF_PERICENTER":"53.4205","CLASSIFICATION_TYPE":"U","EPHEMERIS_TYPE":"0","DECAY_DATE":null,"MEAN_MOTION":"15.08830569","OBJECT_TYPE":"PAYLOAD","SITE":"AFETR","EPOCH":"2022-08-15T00:00:00.999648","MEAN_ANOMALY":"38.3489","REV_AT_EPOCH":"2563","APOAPSIS":"541.201","GP_ID":"210210286","ECCENTRICITY":"0.00020620","COUNTRY_CODE":"US","OBJECT_ID":"2022-025E","PERIOD":"95.438","REF_FRAME":"TEME","TLE_LINE1":"1 51960U 22025E   22227.00001157 -.00001266  00000-0 -61435-4 0  9991","SEMIMAJOR_AXIS":"6917.909","ELEMENT_SET_NO":"999","INCLINATION":"53.2165","CENTER_NAME":"EARTH","NORAD_CAT_ID":"51960","MEAN_MOTION_DDOT":"0.0000000000000","BSTAR":"-0.00006143500000"},{"ELEMENT_SET_NO":"999","SEMIMAJOR_AXIS":"6917.785","INCLINATION":"53.2162","CENTER_NAME":"EARTH","NORAD_CAT_ID":"51961","MEAN_MOTION_DDOT":"0.0000000000000","BSTAR":"-0.00358360000000","MEAN_ANOMALY":"218.0329","EPOCH":"2022-08-14T22:00:00.999936","REV_AT_EPOCH":"130","APOAPSIS":"540.911","GP_ID":"210233485","COUNTRY_CODE":"US","ECCENTRICITY":"0.00018240","PERIOD":"95.436","OBJECT_ID":"2022-025F","REF_FRAME":"TEME","TLE_LINE1":"1 51961U 22025F   22226.91667824 -.00056920  00000-0 -35836-2 0  9991","MEAN_MOTION":"15.08871337","DECAY_DATE":null,"EPHEMERIS_TYPE":"0","OBJECT_TYPE":"PAYLOAD","SITE":"AFETR","PERIAPSIS":"538.388","TLE_LINE2":"2 51961  53.2162 117.5012 0001824  60.8275 218.0329 15.08871337  1305","MEAN_ELEMENT_THEORY":"SGP4","OBJECT_NAME":"STARLINK-3689","MEAN_MOTION_DOT":"-0.00056920","TIME_SYSTEM":"UTC","RCS_SIZE":"LARGE","LAUNCH_DATE":"2022-03-09","CLASSIFICATION_TYPE":"U","ARG_OF_PERICENTER":"60.8275","FILE":"3536615","RA_OF_ASC_NODE":"117.5012"},{"SITE":"AFETR","OBJECT_TYPE":"PAYLOAD","MEAN_MOTION":"15.08853945","DECAY_DATE":null,"EPHEMERIS_TYPE":"0","TIME_SYSTEM":"UTC","CLASSIFICATION_TYPE":"U","FILE":"3536615","RA_OF_ASC_NODE":"117.4896","ARG_OF_PERICENTER":"49.7479","LAUNCH_DATE":"2022-03-09","RCS_SIZE":"LARGE","TLE_LINE2":"2 51962  53.2178 117.4896 0002234  49.7479 343.9485 15.08853945  1306","MEAN_ELEMENT_THEORY":"SGP4","MEAN_MOTION_DOT":"-0.00062198","OBJECT_NAME":"STARLINK-3697","PERIAPSIS":"538.157","MEAN_MOTION_DDOT":"0.0000000000000","BSTAR":"-0.00392220000000","INCLINATION":"53.2178","CENTER_NAME":"EARTH","ELEMENT_SET_NO":"999","SEMIMAJOR_AXIS":"6917.838","NORAD_CAT_ID":"51962","REF_FRAME":"TEME","PERIOD":"95.437","OBJECT_ID":"2022-025G","TLE_LINE1":"1 51962U 22025G   22226.91667824 -.00062198  00000-0 -39222-2 0  9999","REV_AT_EPOCH":"130","APOAPSIS":"541.248","MEAN_ANOMALY":"343.9485","EPOCH":"2022-08-14T22:00:00.999936","COUNTRY_CODE":"US","ECCENTRICITY":"0.00022340","GP_ID":"210233735"},{"GP_ID":"210233984","ECCENTRICITY":"0.00019820","COUNTRY_CODE":"US","EPOCH":"2022-08-14T22:00:00.999936","MEAN_ANOMALY":"231.9402","REV_AT_EPOCH":"130","APOAPSIS":"541.215","TLE_LINE1":"1 51963U 22025H   22226.91667824  .00027269  00000-0  17263-2 0  9999","OBJECT_ID":"2022-025H","PERIOD":"95.440","REF_FRAME":"TEME","NORAD_CAT_ID":"51963","SEMIMAJOR_AXIS":"6917.979","ELEMENT_SET_NO":"999","CENTER_NAME":"EARTH","INCLINATION":"53.2176","BSTAR":"0.00172630000000","MEAN_MOTION_DDOT":"0.0000000000000","PERIAPSIS":"538.473","OBJECT_NAME":"STARLINK-3675","MEAN_MOTION_DOT":"0.00027269","TLE_LINE2":"2 51963  53.2176 117.5038 0001982  66.8444 231.9402 15.08807770  1305","MEAN_ELEMENT_THEORY":"SGP4","RCS_SIZE":"LARGE","LAUNCH_DATE":"2022-03-09","FILE":"3536615","ARG_OF_PERICENTER":"66.8444","RA_OF_ASC_NODE":"117.5038","CLASSIFICATION_TYPE":"U","TIME_SYSTEM":"UTC","EPHEMERIS_TYPE":"0","DECAY_DATE":null,"MEAN_MOTION":"15.08807770","OBJECT_TYPE":"PAYLOAD","SITE":"AFETR"},{"ECCENTRICITY":"0.00023780","COUNTRY_CODE":"US","GP_ID":"210234234","APOAPSIS":"541.349","REV_AT_EPOCH":"130","EPOCH":"2022-08-14T22:00:00.999936","MEAN_ANOMALY":"21.3759","TLE_LINE1":"1 51964U 22025J   22226.91667824 -.00018032  00000-0 -11172-2 0  9993","REF_FRAME":"TEME","OBJECT_ID":"2022-025J","PERIOD":"95.437","NORAD_CAT_ID":"51964","INCLINATION":"53.2176","CENTER_NAME":"EARTH","SEMIMAJOR_AXIS":"6917.839","ELEMENT_SET_NO":"999","BSTAR":"-0.00111720000000","MEAN_MOTION_DDOT":"0.0000000000000","OBJECT_NAME":"STARLINK-3690","MEAN_MOTION_DOT":"-0.00018032","MEAN_ELEMENT_THEORY":"SGP4","TLE_LINE2":"2 51964  53.2176 117.4866 0002378  57.4535  21.3759 15.08853456  1309","PERIAPSIS":"538.059","FILE":"3536615","ARG_OF_PERICENTER":"57.4535","RA_OF_ASC_NODE":"117.4866","CLASSIFICATION_TYPE":"U","LAUNCH_DATE":"2022-03-09","RCS_SIZE":"LARGE","TIME_SYSTEM":"UTC","EPHEMERIS_TYPE":"0","MEAN_MOTION":"15.08853456","DECAY_DATE":null,"OBJECT_TYPE":"PAYLOAD","SITE":"AFETR"}];
